start=new Date('2023-04-10T00:00:00.000Z').valueOf();
sats=[{"SITE":"AFETR","ARG_OF_PERICENTER":"97.3928","OBJECT_TYPE":"PAYLOAD","PERIAPSIS":"546.256","APOAPSIS":"548.187","OBJECT_ID":"2021-038T","REF_FRAME":"TEME","RCS_SIZE":"LARGE","MEAN_ANOMALY":"262.7220","EPHEMERIS_TYPE":"0","CENTER_NAME":"EARTH","COUNTRY_CODE":"US","CLASSIFICATION_TYPE":"U","TLE_LINE2":"2 48370  53.0525  92.5494 0001394  97.3928 262.7220 15.06397313106648","TLE_LINE1":"1 48370U 21038T   23099.69841396  .00001716  00000-0  13405-3 0  9996","MEAN_MOTION":"15.06397313","DECAY_DATE":null,"LAUNCH_DATE":"2021-05-04","OBJECT_NAME":"STARLINK-2621","EPOCH":"2023-04-09T16:45:42.966144","SEMIMAJOR_AXIS":"6925.357","RA_OF_ASC_NODE":"92.5494","FILE":"3884641","MEAN_MOTION_DOT":"0.00001716","TIME_SYSTEM":"UTC","ELEMENT_SET_NO":"999","MEAN_ELEMENT_THEORY":"SGP4","PERIOD":"95.592","MEAN_MOTION_DDOT":"0.0000000000000","INCLINATION":"53.0525","ECCENTRICITY":"0.00013940","NORAD_CAT_ID":"48370","GP_ID":"229807482","REV_AT_EPOCH":"10664","BSTAR":"0.00013405000000"},{"ECCENTRICITY":"0.00012150","MEAN_MOTION_DDOT":"0.0000000000000","INCLINATION":"53.0534","REV_AT_EPOCH":"10664","GP_ID":"229808732","NORAD_CAT_ID":"48371","BSTAR":"0.00057956000000","LAUNCH_DATE":"2021-05-04","OBJECT_NAME":"STARLINK-2589","DECAY_DATE":null,"RA_OF_ASC_NODE":"92.5637","SEMIMAJOR_AXIS":"6925.373","EPOCH":"2023-04-09T16:40:24.373056","ELEMENT_SET_NO":"999","TIME_SYSTEM":"UTC","MEAN_MOTION_DOT":"0.00008360","FILE":"3884641","PERIOD":"95.593","MEAN_ELEMENT_THEORY":"SGP4","EPHEMERIS_TYPE":"0","CENTER_NAME":"EARTH","TLE_LINE2":"2 48371  53.0534  92.5637 0001215  93.1190 266.9938 15.06391915106649","COUNTRY_CODE":"US","CLASSIFICATION_TYPE":"U","MEAN_MOTION":"15.06391915","TLE_LINE1":"1 48371U 21038U   23099.69472654  .00008360  00000-0  57956-3 0  9995","SITE":"AFETR","OBJECT_TYPE":"PAYLOAD","PERIAPSIS":"546.397","ARG_OF_PERICENTER":"93.1190","REF_FRAME":"TEME","APOAPSIS":"548.080","OBJECT_ID":"2021-038U","MEAN_ANOMALY":"266.9938","RCS_SIZE":"LARGE"},{"REF_FRAME":"TEME","OBJECT_ID":"2021-038V","APOAPSIS":"548.242","MEAN_ANOMALY":"264.1299","RCS_SIZE":"LARGE","SITE":"AFETR","ARG_OF_PERICENTER":"95.9855","PERIAPSIS":"546.235","OBJECT_TYPE":"PAYLOAD","COUNTRY_CODE":"US","CLASSIFICATION_TYPE":"U","TLE_LINE2":"2 48372  53.0547  94.3662 0001449  95.9855 264.1299 15.06391835107179","TLE_LINE1":"1 48372U 21038V   23099.29296200 -.00000099  00000-0  12263-4 0  9998","MEAN_MOTION":"15.06391835","EPHEMERIS_TYPE":"0","CENTER_NAME":"EARTH","MEAN_MOTION_DOT":"-0.00000099","FILE":"3884479","ELEMENT_SET_NO":"999","TIME_SYSTEM":"UTC","MEAN_ELEMENT_THEORY":"SGP4","PERIOD":"95.593","DECAY_DATE":null,"OBJECT_NAME":"STARLINK-2572","LAUNCH_DATE":"2021-05-04","SEMIMAJOR_AXIS":"6925.374","EPOCH":"2023-04-09T07:01:51.916800","RA_OF_ASC_NODE":"94.3662","BSTAR":"0.00001226300000","MEAN_MOTION_DDOT":"0.0000000000000","INCLINATION":"53.0547","ECCENTRICITY":"0.00014490","NORAD_CAT_ID":"48372","REV_AT_EPOCH":"10717","GP_ID":"229782871"},{"CENTER_NAME":"EARTH","EPHEMERIS_TYPE":"0","TLE_LINE1":"1 48373U 21038W   23099.28927896 -.00000668  00000-0 -25922-4 0  9999","MEAN_MOTION":"15.06391564","COUNTRY_CODE":"US","CLASSIFICATION_TYPE":"U","TLE_LINE2":"2 48373  53.0551  94.3807 0001651  97.7161 262.4016 15.06391564106582","ARG_OF_PERICENTER":"97.7161","OBJECT_TYPE":"PAYLOAD","PERIAPSIS":"546.096","SITE":"AFETR","RCS_SIZE":"LARGE","MEAN_ANOMALY":"262.4016","OBJECT_ID":"2021-038W","APOAPSIS":"548.383","REF_FRAME":"TEME","NORAD_CAT_ID":"48373","GP_ID":"229774495","REV_AT_EPOCH":"10658","MEAN_MOTION_DDOT":"0.0000000000000","INCLINATION":"53.0551","ECCENTRICITY":"0.00016510","BSTAR":"-0.00002592200000","EPOCH":"2023-04-09T06:56:33.702144","SEMIMAJOR_AXIS":"6925.374","RA_OF_ASC_NODE":"94.3807","DECAY_DATE":null,"LAUNCH_DATE":"2021-05-04","OBJECT_NAME":"STARLINK-2609","MEAN_ELEMENT_THEORY":"SGP4","PERIOD":"95.593","MEAN_MOTION_DOT":"-0.00000668","FILE":"3884332","TIME_SYSTEM":"UTC","ELEMENT_SET_NO":"999"},{"APOAPSIS":"548.094","OBJECT_ID":"2021-038X","REF_FRAME":"TEME","RCS_SIZE":"LARGE","MEAN_ANOMALY":"257.9764","SITE":"AFETR","PERIAPSIS":"546.343","OBJECT_TYPE":"PAYLOAD","ARG_OF_PERICENTER":"102.1367","TLE_LINE2":"2 48374  53.0530  92.6091 0001264 102.1367 257.9764 15.06398402106649","COUNTRY_CODE":"US","CLASSIFICATION_TYPE":"U","MEAN_MOTION":"15.06398402","TLE_LINE1":"1 48374U 21038X   23099.68272627  .00008022  00000-0  55686-3 0  9998","EPHEMERIS_TYPE":"0","CENTER_NAME":"EARTH","TIME_SYSTEM":"UTC","ELEMENT_SET_NO":"999","FILE":"3884641","MEAN_MOTION_DOT":"0.00008022","PERIOD":"95.592","MEAN_ELEMENT_THEORY":"SGP4","LAUNCH_DATE":"2021-05-04","OBJECT_NAME":"STARLINK-2604","DECAY_DATE":null,"RA_OF_ASC_NODE":"92.6091","EPOCH":"2023-04-09T16:23:07.549728","SEMIMAJOR_AXIS":"6925.353","BSTAR":"0.00055686000000","ECCENTRICITY":"0.00012640","INCLINATION":"53.0530","MEAN_MOTION_DDOT":"0.0000000000000","REV_AT_EPOCH":"10664","GP_ID":"229807983","NORAD_CAT_ID":"48374"},{"CENTER_NAME":"EARTH","EPHEMERIS_TYPE":"0","MEAN_MOTION":"15.06398265","TLE_LINE1":"1 48375U 21038Y   23099.67998129  .00001601  00000-0  12635-3 0  9993","TLE_LINE2":"2 48375  53.0551  92.6346 0001596 106.1374 253.9791 15.06398265106649","COUNTRY_CODE":"US","CLASSIFICATION_TYPE":"U","PERIAPSIS":"546.114","OBJECT_TYPE":"PAYLOAD","ARG_OF_PERICENTER":"106.1374","SITE":"AFETR","MEAN_ANOMALY":"253.9791","RCS_SIZE":"LARGE","REF_FRAME":"TEME","OBJECT_ID":"2021-038Y","APOAPSIS":"548.324","REV_AT_EPOCH":"10664","GP_ID":"229808232","NORAD_CAT_ID":"48375","ECCENTRICITY":"0.00015960","INCLINATION":"53.0551","MEAN_MOTION_DDOT":"0.0000000000000","BSTAR":"0.00012635000000","RA_OF_ASC_NODE":"92.6346","SEMIMAJOR_AXIS":"6925.354","EPOCH":"2023-04-09T16:19:10.383456","LAUNCH_DATE":"2021-05-04","OBJECT_NAME":"STARLINK-2603","DECAY_DATE":null,"PERIOD":"95.592","MEAN_ELEMENT_THEORY":"SGP4","ELEMENT_SET_NO":"999","TIME_SYSTEM":"UTC","MEAN_MOTION_DOT":"0.00001601","FILE":"3884641"},{"EPHEMERIS_TYPE":"0","CENTER_NAME":"EARTH","COUNTRY_CODE":"US","CLASSIFICATION_TYPE":"U","TLE_LINE2":"2 48376  53.0549  92.6462 0001384  98.2841 261.8305 15.06399928106647","TLE_LINE1":"1 48376U 21038Z   23099.67629703  .00003382  00000-0  24584-3 0  9997","MEAN_MOTION":"15.06399928","SITE":"AFETR","ARG_OF_PERICENTER":"98.2841","PERIAPSIS":"546.255","OBJECT_TYPE":"PAYLOAD","REF_FRAME":"TEME","APOAPSIS":"548.172","OBJECT_ID":"2021-038Z","MEAN_ANOMALY":"261.8305","RCS_SIZE":"LARGE","INCLINATION":"53.0549","MEAN_MOTION_DDOT":"0.0000000000000","ECCENTRICITY":"0.00013840","NORAD_CAT_ID":"48376","REV_AT_EPOCH":"10664","GP_ID":"229808976","BSTAR":"0.00024584000000","DECAY_DATE":null,"LAUNCH_DATE":"2021-05-04","OBJECT_NAME":"STARLINK-2610","SEMIMAJOR_AXIS":"6925.349","EPOCH":"2023-04-09T16:13:52.063392","RA_OF_ASC_NODE":"92.6462","MEAN_MOTION_DOT":"0.00003382","FILE":"3884641","ELEMENT_SET_NO":"999","TIME_SYSTEM":"UTC","MEAN_ELEMENT_THEORY":"SGP4","PERIOD":"95.592"},{"ARG_OF_PERICENTER":"95.0412","OBJECT_TYPE":"PAYLOAD","PERIAPSIS":"546.346","SITE":"AFETR","MEAN_ANOMALY":"265.0720","RCS_SIZE":"LARGE","REF_FRAME":"TEME","OBJECT_ID":"2021-038AA","APOAPSIS":"548.074","CENTER_NAME":"EARTH","EPHEMERIS_TYPE":"0","TLE_LINE1":"1 48377U 21038AA  23099.67260577  .00010066  00000-0  69368-3 0  9994","MEAN_MOTION":"15.06401119","CLASSIFICATION_TYPE":"U","COUNTRY_CODE":"US","TLE_LINE2":"2 48377  53.0544  92.6627 0001248  95.0412 265.0720 15.06401119106647","SEMIMAJOR_AXIS":"6925.345","EPOCH":"2023-04-09T16:08:33.138528","RA_OF_ASC_NODE":"92.6627","DECAY_DATE":null,"OBJECT_NAME":"STARLINK-2499","LAUNCH_DATE":"2021-05-04","MEAN_ELEMENT_THEORY":"SGP4","PERIOD":"95.592","MEAN_MOTION_DOT":"0.00010066","FILE":"3884641","ELEMENT_SET_NO":"999","TIME_SYSTEM":"UTC","NORAD_CAT_ID":"48377","REV_AT_EPOCH":"10664","GP_ID":"229807238","INCLINATION":"53.0544","MEAN_MOTION_DDOT":"0.0000000000000","ECCENTRICITY":"0.00012480","BSTAR":"0.00069368000000"},{"ECCENTRICITY":"0.00013260","INCLINATION":"53.0536","MEAN_MOTION_DDOT":"0.0000000000000","REV_AT_EPOCH":"10668","GP_ID":"229807483","NORAD_CAT_ID":"48378","BSTAR":"0.00081014000000","OBJECT_NAME":"STARLINK-2526","LAUNCH_DATE":"2021-05-04","DECAY_DATE":null,"RA_OF_ASC_NODE":"91.4872","EPOCH":"2023-04-09T22:25:24.575808","SEMIMAJOR_AXIS":"6925.317","TIME_SYSTEM":"UTC","ELEMENT_SET_NO":"999","FILE":"3884641","MEAN_MOTION_DOT":"0.00011809","PERIOD":"95.591","MEAN_ELEMENT_THEORY":"SGP4","EPHEMERIS_TYPE":"0","CENTER_NAME":"EARTH","TLE_LINE2":"2 48378  53.0536  91.4872 0001326  93.5409 266.5731 15.06410383106689","COUNTRY_CODE":"US","CLASSIFICATION_TYPE":"U","MEAN_MOTION":"15.06410383","TLE_LINE1":"1 48378U 21038AB  23099.93431222  .00011809  00000-0  81014-3 0  9999","SITE":"AFETR","PERIAPSIS":"546.263","OBJECT_TYPE":"PAYLOAD","ARG_OF_PERICENTER":"93.5409","APOAPSIS":"548.100","OBJECT_ID":"2021-038AB","REF_FRAME":"TEME","RCS_SIZE":"LARGE","MEAN_ANOMALY":"266.5731"},{"TLE_LINE2":"2 48379  53.0540  94.4846 0000983  93.9463 266.1638 15.06397902106583","CLASSIFICATION_TYPE":"U","COUNTRY_CODE":"US","MEAN_MOTION":"15.06397902","TLE_LINE1":"1 48379U 21038AC  23099.26715162 -.00000483  00000-0 -13539-4 0  9990","EPHEMERIS_TYPE":"0","CENTER_NAME":"EARTH","OBJECT_ID":"2021-038AC","APOAPSIS":"547.901","REF_FRAME":"TEME","RCS_SIZE":"LARGE","MEAN_ANOMALY":"266.1638","SITE":"AFETR","PERIAPSIS":"546.539","OBJECT_TYPE":"PAYLOAD","ARG_OF_PERICENTER":"93.9463","BSTAR":"-0.00001353900000","ECCENTRICITY":"0.00009830","INCLINATION":"53.0540","MEAN_MOTION_DDOT":"0.0000000000000","GP_ID":"229773497","REV_AT_EPOCH":"10658","NORAD_CAT_ID":"48379","TIME_SYSTEM":"UTC","ELEMENT_SET_NO":"999","FILE":"3884332","MEAN_MOTION_DOT":"-0.00000483","PERIOD":"95.592","MEAN_ELEMENT_THEORY":"SGP4","LAUNCH_DATE":"2021-05-04","OBJECT_NAME":"STARLINK-2612","DECAY_DATE":null,"RA_OF_ASC_NODE":"94.4846","EPOCH":"2023-04-09T06:24:41.899968","SEMIMAJOR_AXIS":"6925.355"}];
